HST                     
1 20580U 90037B   26068.15977042  .00009063  00000+0  30023-3 0  9999
2 20580  28.4717  43.6133 0001837 120.9992 239.0785 15.29473555773239
STARLINK-30902          
1 58421U 23180V   26067.36315464  .00059609  00000+0  21801-2 0  9999
2 58421  43.0021  59.9880 0001666 292.4391  67.6284 15.27248303127312
